[{"OBJECT_NAME":"STARLINK-5584","OBJECT_ID":"2023-028AE","EPOCH":"2026-03-09T18:28:02.981280","MEAN_MOTION":14.98332641,"ECCENTRICITY":0.00029082,"INCLINATION":69.9998,"RA_OF_ASC_NODE":224.3096,"ARG_OF_PERICENTER":269.8174,"MEAN_ANOMALY":90.2652,"EPHEMERIS_TYPE":0,"CLASSIFICATION_TYPE":"U","NORAD_CAT_ID":55769,"ELEMENT_SET_NO":999,"REV_AT_EPOCH":16654,"BSTAR":2.8940536e-5,"MEAN_MOTION_DOT":2.52e-6,"MEAN_MOTION_DDOT":0},{"OBJECT_NAME":"FENGYUN 1C DEB","OBJECT_ID":"1999-025APS","EPOCH":"2026-03-09T05:28:18.008544","MEAN_MOTION":14.8929811,"ECCENTRICITY":0.0134191,"INCLINATION":98.1333,"RA_OF_ASC_NODE":172.0122,"ARG_OF_PERICENTER":51.8819,"MEAN_ANOMALY":339.1928,"EPHEMERIS_TYPE":0,"CLASSIFICATION_TYPE":"U","NORAD_CAT_ID":30660,"ELEMENT_SET_NO":999,"REV_AT_EPOCH":2071,"BSTAR":0.00072395937,"MEAN_MOTION_DOT":8.066e-5,"MEAN_MOTION_DDOT":0}]
